AQUA                    
1 27424U 02022A   26089.21584588  .00001280  00000+0  26493-3 0  9998
2 27424  98.4208  56.9601 0001193 117.6596 299.9408 14.62024113271733
CZ-4B R/B               
1 27432U 02024C   26089.15283722  .00000053  00000+0  50541-4 0  9997
2 27432  98.8795 142.4525 0049464 325.8796  54.1105 14.14551315232133
MIDORI II (ADEOS-II)    
1 27597U 02056A   26089.17497786  .00000397  00000+0  17397-3 0  9995
2 27597  98.7803  47.7987 0000666  19.8491 340.2716 14.29300715213224
H-2A R/B                
1 27601U 02056E   26089.14528917  .00000384  00000+0  14853-3 0  9999
2 27601  98.3237  48.7365 0071389 100.4325 271.6055 14.33774638217042
CZ-4B R/B               
1 28059U 03049C   26089.22008215  .00000463  00000+0  11745-3 0  9998
2 28059  98.6893  84.9333 0048362 167.7256 192.5130 14.55038755189581
CZ-2C R/B               
1 28222U 04012C   26089.12417872  .00075103  00000+0  69856-3 0  9992
2 28222  97.7184 156.3867 0013413 228.0706 131.9411 15.67052536207477
SL-16 R/B               
1 28353U 04021B   26089.24654378  .00000257  00000+0  15839-3 0  9994
2 28353  71.0010 189.3533 0005051 344.4975  15.5992 14.14595788125743
CZ-4B R/B               
1 28415U 04035C   26089.12833079  .00010643  00000+0  37060-3 0  9992
2 28415  97.3466 123.1271 0030047 255.0310 104.7604 15.29419641183033
CZ-2C R/B               
1 28480U 04046B   26089.17046440  .00000193  00000+0  86228-4 0  9999
2 28480  98.1978   2.8784 0140598  94.2724 267.4539 14.26999609111420
ARIANE 5 R/B            
1 28499U 04049H   26089.17975969  .00001111  00000+0  12888-3 0  9990
2 28499  98.2658 258.4083 0082912 284.8899  74.3144 14.85303661148836
CZ-2D R/B               
1 28738U 05024B   26089.28569752  .00055998  00000+0  63882-3 0  9993
2 28738  97.3577 105.2147 0002133 326.4143  33.6979 15.62053457142990
ALOS (DAICHI)           
1 28931U 06002A   26089.12977680  .00001724  00000+0  29664-3 0  9999
2 28931  98.1251  44.9879 0000903 109.6139 250.5164 14.69873007 76486
